{
  "norad_id": 67621,
  "name": "STARLINK-36615",
  "history": [
    {
      "epoch": "2026-03-28T13:07:05.735424Z",
      "apogee_km": 484.1106057246916,
      "perigee_km": 481.90543371535387,
      "latitude_deg": 3.4669680566737544e-05,
      "longitude_deg": 10.871455793734532,
      "height_km": 482.79303408843845,
      "semi_major_axis_km": 6861.145019720023,
      "eccentricity": 0.0001607,
      "inclination_deg": 43.0023,
      "raan_deg": 33.6108,
      "arg_perigee_deg": 269.5898,
      "mean_anomaly_deg": 90.477,
      "mean_motion_rev_day": 15.27593718
    },
    {
      "epoch": "2026-03-29T03:14:29.695488Z",
      "apogee_km": 483.364605476414,
      "perigee_km": 482.50834350679725,
      "latitude_deg": 2.5852501933848762e-05,
      "longitude_deg": 155.11778844664465,
      "height_km": 482.7599004490567,
      "semi_major_axis_km": 6861.073474491605,
      "eccentricity": 6.24e-05,
      "inclination_deg": 43.005,
      "raan_deg": 30.287,
      "arg_perigee_deg": 263.7152,
      "mean_anomaly_deg": 96.3629,
      "mean_motion_rev_day": 15.27617612
    },
    {
      "epoch": "2026-03-29T06:22:48.132768Z",
      "apogee_km": 483.49397777151626,
      "perigee_km": 482.3347345343809,
      "latitude_deg": -2.6620134622461723e-05,
      "longitude_deg": 107.17391880444158,
      "height_km": 482.7500185806352,
      "semi_major_axis_km": 6861.051356152949,
      "eccentricity": 8.448e-05,
      "inclination_deg": 43.0043,
      "raan_deg": 29.5489,
      "arg_perigee_deg": 264.1601,
      "mean_anomaly_deg": 95.9154,
      "mean_motion_rev_day": 15.27624999
    },
    {
      "epoch": "2026-03-30T12:11:44.642112Z",
      "apogee_km": 487.6092035966549,
      "perigee_km": 478.2777225020791,
      "latitude_deg": -8.280895377562797e-06,
      "longitude_deg": 11.696496552176043,
      "height_km": 483.52524857111956,
      "semi_major_axis_km": 6861.080463049367,
      "eccentricity": 0.00068003,
      "inclination_deg": 43.0036,
      "raan_deg": 22.5314,
      "arg_perigee_deg": 260.098,
      "mean_anomaly_deg": 99.9104,
      "mean_motion_rev_day": 15.27615278
    },
    {
      "epoch": "2026-03-30T20:00:01.999872Z",
      "apogee_km": 484.15341078870824,
      "perigee_km": 482.11890607177065,
      "latitude_deg": -6.631559333737177,
      "longitude_deg": -114.65484233306519,
      "height_km": 484.03598028834836,
      "semi_major_axis_km": 6861.273158430239,
      "eccentricity": 0.00014826,
      "inclination_deg": 43.0007,
      "raan_deg": 20.695,
      "arg_perigee_deg": 258.9584,
      "mean_anomaly_deg": 91.4175,
      "mean_motion_rev_day": 15.27550925
    },
    {
      "epoch": "2026-03-31T11:44:08.319552Z",
      "apogee_km": 483.84621979437725,
      "perigee_km": 482.25511037484375,
      "latitude_deg": 4.013548641701043e-05,
      "longitude_deg": 12.090943670685322,
      "height_km": 482.9068665298647,
      "semi_major_axis_km": 6861.18766508461,
      "eccentricity": 0.00011595,
      "inclination_deg": 43.0003,
      "raan_deg": 16.9912,
      "arg_perigee_deg": 264.2511,
      "mean_anomaly_deg": 95.8209,
      "mean_motion_rev_day": 15.27579476
    },
    {
      "epoch": "2026-04-01T11:16:29.955360Z",
      "apogee_km": 483.5447629589007,
      "perigee_km": 482.5471469572485,
      "latitude_deg": 3.272076648020835e-05,
      "longitude_deg": 12.495261383639498,
      "height_km": 482.4419226247054,
      "semi_major_axis_km": 6861.182954958074,
      "eccentricity": 7.27e-05,
      "inclination_deg": 42.9995,
      "raan_deg": 11.4524,
      "arg_perigee_deg": 319.6068,
      "mean_anomaly_deg": 40.473,
      "mean_motion_rev_day": 15.27581049
    },
    {
      "epoch": "2026-04-02T10:48:49.477824Z",
      "apogee_km": 483.71210788332337,
      "perigee_km": 482.18153730417816,
      "latitude_deg": 1.537347779083216e-05,
      "longitude_deg": 12.908997883642554,
      "height_km": 482.71948434602564,
      "semi_major_axis_km": 6861.0838225937505,
      "eccentricity": 0.00011154,
      "inclination_deg": 42.9989,
      "raan_deg": 5.9142,
      "arg_perigee_deg": 270.2749,
      "mean_anomaly_deg": 89.7975,
      "mean_motion_rev_day": 15.27614156
    },
    {
      "epoch": "2026-04-03T18:11:57.475968Z",
      "apogee_km": 483.77373312257623,
      "perigee_km": 482.4591169663381,
      "latitude_deg": 3.5499851112471374e-05,
      "longitude_deg": -106.54806486499517,
      "height_km": 482.4291303638317,
      "semi_major_axis_km": 6861.253425044457,
      "eccentricity": 9.58e-05,
      "inclination_deg": 42.9954,
      "raan_deg": 358.5294,
      "arg_perigee_deg": 314.7698,
      "mean_anomaly_deg": 45.3076,
      "mean_motion_rev_day": 15.27557515
    },
    {
      "epoch": "2026-04-04T17:44:18.876768Z",
      "apogee_km": 483.8398845280917,
      "perigee_km": 482.03953799905685,
      "latitude_deg": -1.2232224982322423e-06,
      "longitude_deg": -106.1431985512495,
      "height_km": 482.2797617201193,
      "semi_major_axis_km": 6861.076711263574,
      "eccentricity": 0.0001312,
      "inclination_deg": 42.9993,
      "raan_deg": 352.9902,
      "arg_perigee_deg": 299.0004,
      "mean_anomaly_deg": 61.0716,
      "mean_motion_rev_day": 15.27616531
    },
    {
      "epoch": "2026-04-05T01:35:06.180000Z",
      "apogee_km": 483.98522638038867,
      "perigee_km": 482.21982944985666,
      "latitude_deg": 4.296999538592331e-05,
      "longitude_deg": 133.98970821206237,
      "height_km": 482.4530822386884,
      "semi_major_axis_km": 6861.239527915122,
      "eccentricity": 0.00012865,
      "inclination_deg": 42.9996,
      "raan_deg": 351.1424,
      "arg_perigee_deg": 298.8508,
      "mean_anomaly_deg": 61.2215,
      "mean_motion_rev_day": 15.27562156
    },
    {
      "epoch": "2026-04-06T01:07:26.855040Z",
      "apogee_km": 483.8375646969271,
      "perigee_km": 482.17524687257264,
      "latitude_deg": 5.4292688331025145e-06,
      "longitude_deg": 134.39860487019433,
      "height_km": 482.7471968057582,
      "semi_major_axis_km": 6861.143405784749,
      "eccentricity": 0.00012114,
      "inclination_deg": 43.0009,
      "raan_deg": 345.6042,
      "arg_perigee_deg": 272.4724,
      "mean_anomaly_deg": 87.5989,
      "mean_motion_rev_day": 15.27594257
    },
    {
      "epoch": "2026-04-07T08:30:34.436736Z",
      "apogee_km": 483.7458593770325,
      "perigee_km": 482.3234012746334,
      "latitude_deg": -1.550683235163682e-05,
      "longitude_deg": 14.943734547206843,
      "height_km": 482.5642643790872,
      "semi_major_axis_km": 6861.171630325833,
      "eccentricity": 0.00010366,
      "inclination_deg": 43.0038,
      "raan_deg": 338.2199,
      "arg_perigee_deg": 290.3352,
      "mean_anomaly_deg": 69.7388,
      "mean_motion_rev_day": 15.27584831
    },
    {
      "epoch": "2026-04-08T00:12:08.053920Z",
      "apogee_km": 483.6827120603075,
      "perigee_km": 482.299234215805,
      "latitude_deg": 2.536825936568054e-05,
      "longitude_deg": 135.2163295027436,
      "height_km": 482.52006595401895,
      "semi_major_axis_km": 6861.127973138056,
      "eccentricity": 0.00010082,
      "inclination_deg": 42.999,
      "raan_deg": 334.527,
      "arg_perigee_deg": 290.9323,
      "mean_anomaly_deg": 69.1421,
      "mean_motion_rev_day": 15.27599411
    },
    {
      "epoch": "2026-04-09T01:18:40.060512Z",
      "apogee_km": 483.8853876455087,
      "perigee_km": 482.2787645866447,
      "latitude_deg": -1.4979690346144845e-05,
      "longitude_deg": 111.64353695200762,
      "height_km": 482.9445751792158,
      "semi_major_axis_km": 6861.219076116076,
      "eccentricity": 0.00011708,
      "inclination_deg": 43.0002,
      "raan_deg": 328.6188,
      "arg_perigee_deg": 263.8555,
      "mean_anomaly_deg": 96.2163,
      "mean_motion_rev_day": 15.27568986
    },
    {
      "epoch": "2026-04-10T07:07:36.598368Z",
      "apogee_km": 483.9517444971598,
      "perigee_km": 481.9510511203589,
      "latitude_deg": 3.511362927452929e-05,
      "longitude_deg": 16.167425021847468,
      "height_km": 482.6209666930715,
      "semi_major_axis_km": 6861.088397808759,
      "eccentricity": 0.0001458,
      "inclination_deg": 43.0008,
      "raan_deg": 321.6027,
      "arg_perigee_deg": 276.1559,
      "mean_anomaly_deg": 83.9127,
      "mean_motion_rev_day": 15.27612628
    },
    {
      "epoch": "2026-04-11T20:47:21.452064Z",
      "apogee_km": 484.19298079673354,
      "perigee_km": 481.82588527733697,
      "latitude_deg": 9.16984378174021e-07,
      "longitude_deg": 160.82075288401566,
      "height_km": 482.75622413934127,
      "semi_major_axis_km": 6861.146433037035,
      "eccentricity": 0.0001725,
      "inclination_deg": 42.9999,
      "raan_deg": 312.7397,
      "arg_perigee_deg": 271.4604,
      "mean_anomaly_deg": 88.605,
      "mean_motion_rev_day": 15.27593246
    },
    {
      "epoch": "2026-04-12T20:19:42.771648Z",
      "apogee_km": 483.77346265741926,
      "perigee_km": 482.3099732368819,
      "latitude_deg": -4.1262381505660355e-05,
      "longitude_deg": 161.22475278963148,
      "height_km": 482.86304366590406,
      "semi_major_axis_km": 6861.17871794715,
      "eccentricity": 0.00010665,
      "inclination_deg": 42.9985,
      "raan_deg": 307.1993,
      "arg_perigee_deg": 266.4681,
      "mean_anomaly_deg": 93.6048,
      "mean_motion_rev_day": 15.27582464
    },
    {
      "epoch": "2026-04-14T19:24:24.012864Z",
      "apogee_km": 483.84850700224797,
      "perigee_km": 482.1922236142618,
      "latitude_deg": -2.346886809888217e-05,
      "longitude_deg": 162.04170530551747,
      "height_km": 482.76775865956813,
      "semi_major_axis_km": 6861.157365308254,
      "eccentricity": 0.0001207,
      "inclination_deg": 42.9985,
      "raan_deg": 296.1215,
      "arg_perigee_deg": 272.0057,
      "mean_anomaly_deg": 88.0656,
      "mean_motion_rev_day": 15.27589595
    }
  ]
}